ORBCOMM-X               
1 21576U 91050C   25187.16503473  .00000242  00000+0  84491-4 0  9995
2 21576  98.3428 253.3772 0004734 120.3443 239.8216 14.43274049784852
ORBCOMM FM01            
1 23545U 95017A   25187.59920418  .00004333  00000+0  45456-3 0  9991
2 23545  69.9638  25.7227 0005436 272.8177  87.2356 14.90231327615408
ORBCOMM FM02            
1 23546U 95017B   25187.06091529  .00004598  00000+0  47130-3 0  9990
2 23546  69.9653  46.3959 0006785 274.3991  85.6389 14.91117065615272
ORBCOMM FM08            
1 25112U 97084A   25187.59677217  .00000810  00000+0  26632-3 0  9996
2 25112  45.0142 274.6885 0005813 325.1569  34.8901 14.45853938444183
ORBCOMM FM10            
1 25113U 97084B   25187.37340973  .00000827  00000+0  27213-3 0  9993
2 25113  45.0155 278.1744 0005577 287.5928  72.4314 14.45641930619297
ORBCOMM FM11            
1 25114U 97084C   25187.58863558  .00000809  00000+0  26846-3 0  9997
2 25114  45.0139 277.8095 0006264 292.6337  67.3851 14.45391434444285
